start=new Date('2022-10-28T00:00:00.000Z').valueOf();
sats=[{"EPHEMERIS_TYPE":"0","PERIOD":"95.592","ECCENTRICITY":"0.00020450","REF_FRAME":"TEME","REV_AT_EPOCH":"11185","CLASSIFICATION_TYPE":"U","ELEMENT_SET_NO":"999","ARG_OF_PERICENTER":"50.3375","OBJECT_ID":"2020-073F","TLE_LINE2":"2 46675  53.0547 359.9505 0002045  50.3375 309.7794 15.06406817111857","MEAN_MOTION_DDOT":"0.0000000000000","MEAN_MOTION_DOT":"0.00006233","BSTAR":"0.00043690000000","FILE":"3635758","CENTER_NAME":"EARTH","EPOCH":"2022-10-27T10:29:42.209376","MEAN_ANOMALY":"309.7794","MEAN_MOTION":"15.06406817","DECAY_DATE":null,"LAUNCH_DATE":"2020-10-18","GP_ID":"216302030","TIME_SYSTEM":"UTC","OBJECT_TYPE":"PAYLOAD","SITE":"AFETR","NORAD_CAT_ID":"46675","RA_OF_ASC_NODE":"359.9505","MEAN_ELEMENT_THEORY":"SGP4","PERIAPSIS":"545.776","OBJECT_NAME":"STARLINK-1720","APOAPSIS":"548.609","COUNTRY_CODE":"US","INCLINATION":"53.0547","TLE_LINE1":"1 46675U 20073F   22300.43729409  .00006233  00000-0  43690-3 0  9994","RCS_SIZE":"LARGE","SEMIMAJOR_AXIS":"6925.328"},{"SEMIMAJOR_AXIS":"6925.319","TLE_LINE1":"1 46677U 20073H   22300.43359960  .00004503  00000-0  32089-3 0  9995","RCS_SIZE":"LARGE","COUNTRY_CODE":"US","INCLINATION":"53.0558","APOAPSIS":"548.285","OBJECT_NAME":"STARLINK-1766","RA_OF_ASC_NODE":"359.9664","PERIAPSIS":"546.083","MEAN_ELEMENT_THEORY":"SGP4","NORAD_CAT_ID":"46677","SITE":"AFETR","OBJECT_TYPE":"PAYLOAD","TIME_SYSTEM":"UTC","GP_ID":"216302771","LAUNCH_DATE":"2020-10-18","DECAY_DATE":null,"MEAN_MOTION":"15.06409686","MEAN_ANOMALY":"302.6486","EPOCH":"2022-10-27T10:24:23.005440","CENTER_NAME":"EARTH","FILE":"3635758","MEAN_MOTION_DOT":"0.00004503","BSTAR":"0.00032089000000","MEAN_MOTION_DDOT":"0.0000000000000","OBJECT_ID":"2020-073H","TLE_LINE2":"2 46677  53.0558 359.9664 0001590  57.4657 302.6486 15.06409686111859","ARG_OF_PERICENTER":"57.4657","ELEMENT_SET_NO":"999","REV_AT_EPOCH":"11185","CLASSIFICATION_TYPE":"U","EPHEMERIS_TYPE":"0","PERIOD":"95.592","ECCENTRICITY":"0.00015900","REF_FRAME":"TEME"},{"INCLINATION":"53.0550","COUNTRY_CODE":"US","APOAPSIS":"548.553","SEMIMAJOR_AXIS":"6925.305","TLE_LINE1":"1 46679U 20073K   22300.83720708  .00003513  00000-0  25454-3 0  9991","RCS_SIZE":"LARGE","PERIAPSIS":"545.787","MEAN_ELEMENT_THEORY":"SGP4","RA_OF_ASC_NODE":"338.1506","OBJECT_NAME":"STARLINK-1773","OBJECT_TYPE":"PAYLOAD","SITE":"AFETR","NORAD_CAT_ID":"46679","MEAN_MOTION":"15.06414288","CENTER_NAME":"EARTH","EPOCH":"2022-10-27T20:05:34.691712","MEAN_ANOMALY":"314.6396","LAUNCH_DATE":"2020-10-18","DECAY_DATE":null,"TIME_SYSTEM":"UTC","GP_ID":"216332769","ELEMENT_SET_NO":"999","CLASSIFICATION_TYPE":"U","REV_AT_EPOCH":"11219","ARG_OF_PERICENTER":"45.4756","ECCENTRICITY":"0.00019970","REF_FRAME":"TEME","PERIOD":"95.591","EPHEMERIS_TYPE":"0","BSTAR":"0.00025454000000","MEAN_MOTION_DOT":"0.00003513","FILE":"3636022","OBJECT_ID":"2020-073K","TLE_LINE2":"2 46679  53.0550 338.1506 0001997  45.4756 314.6396 15.06414288112190","MEAN_MOTION_DDOT":"0.0000000000000"},{"MEAN_MOTION":"15.06404385","CENTER_NAME":"EARTH","EPOCH":"2022-10-27T12:11:12.031296","MEAN_ANOMALY":"299.1893","DECAY_DATE":null,"LAUNCH_DATE":"2020-10-18","GP_ID":"216302280","TIME_SYSTEM":"UTC","ELEMENT_SET_NO":"999","CLASSIFICATION_TYPE":"U","REV_AT_EPOCH":"11165","ARG_OF_PERICENTER":"60.9268","ECCENTRICITY":"0.00017120","REF_FRAME":"TEME","PERIOD":"95.592","EPHEMERIS_TYPE":"0","BSTAR":"0.00020408000000","MEAN_MOTION_DOT":"0.00002760","FILE":"3635758","TLE_LINE2":"2 46680  53.0558  14.6350 0001712  60.9268 299.1893 15.06404385111654","OBJECT_ID":"2020-073L","MEAN_MOTION_DDOT":"0.0000000000000","INCLINATION":"53.0558","COUNTRY_CODE":"US","APOAPSIS":"548.386","SEMIMAJOR_AXIS":"6925.335","RCS_SIZE":"LARGE","TLE_LINE1":"1 46680U 20073L   22300.50777814  .00002760  00000-0  20408-3 0  9994","PERIAPSIS":"546.015","MEAN_ELEMENT_THEORY":"SGP4","RA_OF_ASC_NODE":"14.6350","OBJECT_NAME":"STARLINK-1774","NORAD_CAT_ID":"46680","SITE":"AFETR","OBJECT_TYPE":"PAYLOAD"},{"MEAN_MOTION":"15.06404175","CENTER_NAME":"EARTH","EPOCH":"2022-10-27T14:39:49.142880","MEAN_ANOMALY":"315.5277","LAUNCH_DATE":"2020-10-18","DECAY_DATE":null,"GP_ID":"216333767","TIME_SYSTEM":"UTC","ELEMENT_SET_NO":"999","CLASSIFICATION_TYPE":"U","REV_AT_EPOCH":"11166","ARG_OF_PERICENTER":"44.5877","ECCENTRICITY":"0.00020460","REF_FRAME":"TEME","PERIOD":"95.592","EPHEMERIS_TYPE":"0","BSTAR":"0.00016310000000","MEAN_MOTION_DOT":"0.00002149","FILE":"3636022","OBJECT_ID":"2020-073M","TLE_LINE2":"2 46681  53.0572  14.1696 0002046  44.5877 315.5277 15.06404175111661","MEAN_MOTION_DDOT":"0.0000000000000","INCLINATION":"53.0572","COUNTRY_CODE":"US","APOAPSIS":"548.618","SEMIMAJOR_AXIS":"6925.336","TLE_LINE1":"1 46681U 20073M   22300.61098545  .00002149  00000-0  16310-3 0  9992","RCS_SIZE":"LARGE","PERIAPSIS":"545.784","MEAN_ELEMENT_THEORY":"SGP4","RA_OF_ASC_NODE":"14.1696","OBJECT_NAME":"STARLINK-1775","OBJECT_TYPE":"PAYLOAD","SITE":"AFETR","NORAD_CAT_ID":"46681"},{"MEAN_MOTION":"15.06436105","MEAN_ANOMALY":"300.6002","EPOCH":"2022-10-27T16:52:31.031616","CENTER_NAME":"EARTH","GP_ID":"216333522","TIME_SYSTEM":"UTC","LAUNCH_DATE":"2020-10-18","DECAY_DATE":null,"ARG_OF_PERICENTER":"59.5170","CLASSIFICATION_TYPE":"U","ELEMENT_SET_NO":"999","REV_AT_EPOCH":"11168","ECCENTRICITY":"0.00018550","REF_FRAME":"TEME","EPHEMERIS_TYPE":"0","PERIOD":"95.590","FILE":"3636022","BSTAR":"0.00116820000000","MEAN_MOTION_DOT":"0.00017179","MEAN_MOTION_DDOT":"0.0000000000000","TLE_LINE2":"2 46682  53.0542  13.7691 0001855  59.5170 300.6002 15.06436105111689","OBJECT_ID":"2020-073N","INCLINATION":"53.0542","COUNTRY_CODE":"US","APOAPSIS":"548.388","SEMIMAJOR_AXIS":"6925.238","RCS_SIZE":"LARGE","TLE_LINE1":"1 46682U 20073N   22300.70313694  .00017179  00000-0  11682-2 0  9993","OBJECT_NAME":"STARLINK-1776","PERIAPSIS":"545.818","MEAN_ELEMENT_THEORY":"SGP4","RA_OF_ASC_NODE":"13.7691","NORAD_CAT_ID":"46682","SITE":"AFETR","OBJECT_TYPE":"PAYLOAD"},{"NORAD_CAT_ID":"46684","SITE":"AFETR","OBJECT_TYPE":"PAYLOAD","OBJECT_NAME":"STARLINK-1780","MEAN_ELEMENT_THEORY":"SGP4","PERIAPSIS":"546.019","RA_OF_ASC_NODE":"0.3057","APOAPSIS":"548.317","INCLINATION":"53.0555","COUNTRY_CODE":"US","RCS_SIZE":"LARGE","TLE_LINE1":"1 46684U 20073Q   22300.35988657  .00008790  00000-0  60802-3 0  9991","SEMIMAJOR_AXIS":"6925.303","REF_FRAME":"TEME","ECCENTRICITY":"0.00016590","PERIOD":"95.591","EPHEMERIS_TYPE":"0","ARG_OF_PERICENTER":"64.5983","REV_AT_EPOCH":"11184","CLASSIFICATION_TYPE":"U","ELEMENT_SET_NO":"999","MEAN_MOTION_DDOT":"0.0000000000000","TLE_LINE2":"2 46684  53.0555   0.3057 0001659  64.5983 295.5177 15.06414945111844","OBJECT_ID":"2020-073Q","FILE":"3635758","BSTAR":"0.00060802000000","MEAN_MOTION_DOT":"0.00008790","MEAN_ANOMALY":"295.5177","EPOCH":"2022-10-27T08:38:14.199648","CENTER_NAME":"EARTH","MEAN_MOTION":"15.06414945","GP_ID":"216301029","TIME_SYSTEM":"UTC","DECAY_DATE":null,"LAUNCH_DATE":"2020-10-18"},{"OBJECT_NAME":"STARLINK-1781","MEAN_ELEMENT_THEORY":"SGP4","PERIAPSIS":"546.081","RA_OF_ASC_NODE":"14.4342","OBJECT_TYPE":"PAYLOAD","SITE":"AFETR","NORAD_CAT_ID":"46685","INCLINATION":"53.0563","COUNTRY_CODE":"US","APOAPSIS":"548.357","SEMIMAJOR_AXIS":"6925.354","TLE_LINE1":"1 46685U 20073R   22300.54737347  .00001008  00000-0  86577-4 0  9994","RCS_SIZE":"LARGE","ARG_OF_PERICENTER":"75.1288","CLASSIFICATION_TYPE":"U","ELEMENT_SET_NO":"999","REV_AT_EPOCH":"11165","ECCENTRICITY":"0.00016430","REF_FRAME":"TEME","EPHEMERIS_TYPE":"0","PERIOD":"95.592","FILE":"3636022","BSTAR":"0.00008657700000","MEAN_MOTION_DOT":"0.00001008","MEAN_MOTION_DDOT":"0.0000000000000","OBJECT_ID":"2020-073R","TLE_LINE2":"2 46685  53.0563  14.4342 0001643  75.1288 284.9883 15.06398331111651","MEAN_MOTION":"15.06398331","EPOCH":"2022-10-27T13:08:13.067808","MEAN_ANOMALY":"284.9883","CENTER_NAME":"EARTH","TIME_SYSTEM":"UTC","GP_ID":"216333020","LAUNCH_DATE":"2020-10-18","DECAY_DATE":null},{"OBJECT_NAME":"STARLINK-1783","RA_OF_ASC_NODE":"15.1147","MEAN_ELEMENT_THEORY":"SGP4","PERIAPSIS":"546.192","SITE":"AFETR","NORAD_CAT_ID":"46686","OBJECT_TYPE":"PAYLOAD","COUNTRY_CODE":"US","INCLINATION":"53.0541","APOAPSIS":"548.271","SEMIMAJOR_AXIS":"6925.366","RCS_SIZE":"LARGE","TLE_LINE1":"1 46686U 20073S   22300.39256574  .00003480  00000-0  25243-3 0  9994","ARG_OF_PERICENTER":"59.7239","ELEMENT_SET_NO":"999","CLASSIFICATION_TYPE":"U","REV_AT_EPOCH":"11163","PERIOD":"95.593","EPHEMERIS_TYPE":"0","REF_FRAME":"TEME","ECCENTRICITY":"0.00015010","FILE":"3635758","MEAN_MOTION_DOT":"0.00003480","BSTAR":"0.00025243000000","MEAN_MOTION_DDOT":"0.0000000000000","OBJECT_ID":"2020-073S","TLE_LINE2":"2 46686  53.0541  15.1147 0001501  59.7239 300.3898 15.06394172111632","MEAN_MOTION":"15.06394172","EPOCH":"2022-10-27T09:25:17.679936","MEAN_ANOMALY":"300.3898","CENTER_NAME":"EARTH","TIME_SYSTEM":"UTC","GP_ID":"216302031","LAUNCH_DATE":"2020-10-18","DECAY_DATE":null},{"OBJECT_NAME":"STARLINK-1784","RA_OF_ASC_NODE":"338.1108","PERIAPSIS":"545.531","MEAN_ELEMENT_THEORY":"SGP4","SITE":"AFETR","OBJECT_TYPE":"PAYLOAD","NORAD_CAT_ID":"46687","COUNTRY_CODE":"US","INCLINATION":"53.0556","APOAPSIS":"548.862","SEMIMAJOR_AXIS":"6925.331","RCS_SIZE":"LARGE","TLE_LINE1":"1 46687U 20073T   22300.84827342  .00003918  00000-0  28172-3 0  9992","ARG_OF_PERICENTER":"42.1968","CLASSIFICATION_TYPE":"U","REV_AT_EPOCH":"11267","ELEMENT_SET_NO":"999","PERIOD":"95.592","EPHEMERIS_TYPE":"0","REF_FRAME":"TEME","ECCENTRICITY":"0.00024050","FILE":"3635911","MEAN_MOTION_DOT":"0.00003918","BSTAR":"0.00028172000000","MEAN_MOTION_DDOT":"0.0000000000000","TLE_LINE2":"2 46687  53.0556 338.1108 0002405  42.1968 317.9206 15.06405678112679","OBJECT_ID":"2020-073T","MEAN_MOTION":"15.06405678","MEAN_ANOMALY":"317.9206","EPOCH":"2022-10-27T20:21:30.823488","CENTER_NAME":"EARTH","TIME_SYSTEM":"UTC","GP_ID":"216311157","DECAY_DATE":null,"LAUNCH_DATE":"2020-10-18"}];
